X,Y,Full Name,City,State,Zip Code,County,Manually adjusted?
-85.2504893,31.5718352,"Abbeville, AL",Abbeville,AL,36310,HENRY,0
-87.6835974,30.4065868,"Foley, AL",Foley,AL,36535,BALDWIN,0
-86.5861037,34.7303688,"Huntsville, AL",Huntsville,AL,35801,MADISON,0
-87.4360804,30.4142478,"Lillian, AL",Lillian,AL,36549,BALDWIN,0
-149.1127777,61.5997222,"Palmer, AK",Palmer,AK,99645,MATANUSKA SUSITNA,0
-112.5837766,33.3703197,"Buckeye, AZ",Buckeye,AZ,85326,MARICOPA,0
-111.7733902,32.9110027,"Casa Grande, AZ",Casa Grande,AZ,85122,PINAL,0
-112.3576567,33.4353394,"Goodyear, AZ",Goodyear,AZ,85338,MARICOPA,0
-110.9937019,31.8542511,"Green Valley, AZ",Green Valley,AZ,85614,PIMA,0
-114.0530065,35.189443,"Kingman, AZ",Kingman,AZ,86401,MOHAVE,0
-114.565,35.2194444,"Bullhead City, AZ",Lake Mohave Marina,AZ,86429,MOHAVE,1
-112.1359906,33.9158687,"New River, AZ",New River,AZ,85087,MARICOPA,0
-111.3251355,34.2308684,"Payson, AZ",Payson,AZ,85541,GILA,0
-112.0740373,33.4483771,"Phoenix, AZ",Phoenix,AZ,85001,MARICOPA,0
-112.3679279,33.6292337,"Surprise, AZ",Surprise,AZ,85374,MARICOPA,0
-111.9260519,33.4941704,"Scottsdale, AZ",Scottsdale,AZ,85250,MARICOPA,0
-110.9747108,32.2226066,"Tucson, AZ",Tucson,AZ,85701,PIMA,0
-109.6926121,34.2549559,"Vernon, AZ",Vernon,AZ,85940,APACHE,0
-92.586828,34.5645371,"Benton, AR",Benton,AR,72015,SALINE,0
-94.1718542,36.082156,"Fayetteville, AR",Fayetteville,AR,72701,WASHINGTON,0
-94.1349259,35.8009145,"Winslow, AR",Winslow,AR,72959,WASHINGTON,0
-117.9143012,33.8365932,"Anaheim, CA",Anaheim,CA,92801,ORANGE,0
-122.2977815,40.448208,"Anderson, CA",Anderson,CA,96007,SHASTA,0
-121.805789,38.0049214,"Antioch, CA",Antioch,CA,94509,CONTRA COSTA,0
-121.8994016,36.9771729,"Aptos, CA",Aptos,CA,95001,SANTA CRUZ,0
-124.0828396,40.8665166,"Arcata, CA",Arcata,CA,95518,HUMBOLDT,0
-121.0768901,38.8965654,"Auburn, CA",Auburn,CA,95602,PLACER,0
-119.0187125,35.3732921,"Bakersfield, CA",Bakersfield,CA,93301,KERN,0
-121.4053135,39.3886118,"Bangor, CA",Bangor,CA,95914,BUTTE,0
-116.8764103,33.9255713,"Banning, CA",Banning,CA,92220,RIVERSIDE,0
-119.5794383,37.3366179,"Bass Lake, CA",Bass Lake,CA,93604,MADERA,0
-121.3598812,39.111504,"Beale AFB, CA",Beale AFB,CA,95903,YUBA,0
-121.1441396,41.1212775,"Bieber, CA",Bieber,CA,96009,LASSEN,0
-121.7127513,39.4123876,"Biggs, CA",Biggs,CA,95917,BUTTE,0
-122.1221869,37.1260578,"Boulder Creek, CA",Boulder Creek,CA,95006,SANTA CRUZ,0
-121.6957863,37.931868,"Brentwood, CA",Brentwood,CA,94513,CONTRA COSTA,0
-121.4091297,39.2421139,"Browns Valley, CA",Browns Valley,CA,95918,YUBA,0
-121.2691283,39.4732217,"Brownsville, CA",Brownsville,CA,95919,YUBA,0
-122.34809,37.5778696,"Burlingame, CA",Burlingame,CA,94010,SAN MATEO,0
-121.9418605,39.2563558,"Colusa, CA",Butte Creek,CA,95932,COLUSA,1
-121.5543062,39.6445906,"Butte Valley, CA",Butte Valley,CA,95965,BUTTE,1
-119.0376023,34.2163937,"Camarillo, CA",Camarillo,CA,93010,VENTURA,0
-121.048598,39.4521323,"Camptonville, CA",Camptonville,CA,95922,YUBA,0
-122.0507301,38.7082349,"Capay, CA",Capay,CA,95607,YOLO,0
-121.3282843,38.617127,"Carmichael, CA",Carmichael,CA,95608,SACRAMENTO,0
-119.496389,36.733611,"Centerville, CA",Centerville,CA,93657,FRESNO,1
-121.2319098,40.3062736,"Chester, CA",Chester,CA,96020,PLUMAS,0
-121.8374777,39.7284944,"Chico, CA",Chico,CA,95926,BUTTE,0
-120.2601754,37.1229997,"Chowchilla, CA",Chowchilla,CA,93610,MADERA,0
-121.2810611,38.7071247,"Citrus Heights, CA",Citrus Heights,CA,95610,SACRAMENTO,0
-121.0485719,40.2979436,"Clear Creek, CA",Clear Creek,CA,96137,LASSEN,1
-122.6263728,38.9582307,"Clearlake, CA",Clearlake,CA,95422,LAKE,0
-119.7029194,36.8252277,"Clovis, CA",Clovis,CA,93611,FRESNO,0
-121.7310898,39.9254385,"Cohasset, CA",Cohasset,CA,95973,BUTTE,0
-121.5141615,39.7999897,"Concow, CA",Concow,CA,95965,BUTTE,0
-122.1791556,39.9276572,"Corning, CA",Corning,CA,96021,TEHAMA,0
-122.2808355,40.3857087,"Cottonwood, CA",Cottonwood,CA,96022,SHASTA,0
-124.2025913,41.7557501,"Crescent City, CA",Crescent City,CA,95531,DEL NORTE,0
-122.2130236,38.0524208,"Crockett, CA",Crockett,CA,94525,CONTRA COSTA,0
-121.7405167,38.5449065,"Davis, CA",Davis,CA,95616,YOLO,0
-121.8232958,38.4454641,"Dixon, CA",Dixon,CA,95620,SOLANO,0
-120.104056,40.0272338,"Doyle, CA",Doyle,CA,96109,LASSEN,0
-121.9695801,38.8852378,"Dunnigan, CA",Dunnigan,CA,95937,YOLO,0
-122.2719529,41.2082089,"Dunsmuir, CA",Dunsmuir,CA,96025,SISKIYOU,0
-121.7999767,39.6462733,"Durham, CA",Durham,CA,95938,BUTTE,0
-119.6526423,37.0127274,"East Bay, CA",East Bay,CA,93626,FRESNO,1
-121.3716178,38.4087993,"Elk Grove, CA",Elk Grove,CA,95624,SACRAMENTO,0
-124.1636729,40.8020712,"Eureka, CA",Eureka,CA,95501,HUMBOLDT,0
-120.6604855,38.5935173,"Fair Play, CA",Fair Play,CA,95684,EL DORADO,1
-121.2563504,39.5932207,"Feather Falls, CA",Feather Falls,CA,95940,BUTTE,0
-122.0732973,37.0513374,"Felton, CA",Felton,CA,95018,SANTA CRUZ,0
-121.1760583,38.6779591,"Folsom, CA",Folsom,CA,95630,SACRAMENTO,0
-121.2671825,39.5171268,"Forbestown, CA",Forbestown,CA,95941,BUTTE,0
-121.6810778,39.873843,"Forest Ranch, CA",Forest Ranch,CA,95942,BUTTE,0
-123.8052935,39.445723,"Fort Bragg, CA",Fort Bragg,CA,95437,MENDOCINO,0
-122.2710788,37.5585465,"Foster City, CA",Foster City,CA,94404,SAN MATEO,1
-121.9885719,37.5482697,"Fremont, CA",Fremont,CA,94536,ALAMEDA,0
-119.7871247,36.7377981,"Fresno, CA",Fresno,CA,93650,FRESNO,0
-122.1502688,40.0562678,"Gerber, CA",Gerber,CA,96035,TEHAMA,0
-121.0610606,39.2190608,"Grass Valley, CA",Grass Valley,CA,95945,NEVADA,0
-121.6935833,39.3637773,"Gridley, CA",Gridley,CA,95948,BUTTE,0
-121.0913504,40.274887,"Hamilton Branch, CA",Hamilton Branch,CA,96137,LASSEN,1
-116.9719684,33.7475203,"Hemet, CA",Hemet,CA,92543,RIVERSIDE,0
-121.4016021,36.8524545,"Hollister, CA",Hollister,CA,95023,SAN BENITO,0
-120.9327177,38.3526912,"Ione, CA",Ione,CA,95640,AMADOR,0
-120.7741018,38.3488023,"Jackson, CA",Jackson,CA,95642,AMADOR,0
-120.4226952,37.9532584,"Jamestown, CA",Jamestown,CA,95327,TUOLUMNE,0
-122.8394375,38.9779531,"Kelseyville, CA",Kelseyville,CA,95451,LAKE,0
-121.1824925,40.2614512,"Lake Almanor, CA",Lake Almanor,CA,96137,LASSEN,1
-122.3791777,40.90515,"Lakehead, CA",Lakehead,CA,96051,SHASTA,0
-121.27661,37.8227046,"Lathrop, CA",Lathrop,CA,95330,SAN JOAQUIN,0
-121.2930079,38.891565,"Lincoln, CA",Lincoln,CA,95648,PLACER,0
-121.5507976,39.1276702,"Linda, CA",Linda,CA,95901,YUBA,1
-121.6599701,39.2757232,"Live Oak, CA",Live Oak,CA,95953,SUTTER,0
-121.7680088,37.6818745,"Livermore, CA",Livermore,CA,94550,ALAMEDA,0
-121.2722194,38.1341477,"Lodi, CA",Lodi,CA,95240,SAN JOAQUIN,0
-118.1937395,33.7700504,"Long Beach, CA",Long Beach,CA,90801,LOS ANGELES,0
-120.8499151,37.0582786,"Los Banos, CA",Los Banos,CA,93635,MERCED,0
-122.1002666,40.0212683,"Los Molinos, CA",Los Molinos,CA,96055,TEHAMA,0
-121.5783059,39.8121058,"Magalia, CA",Magalia,CA,95954,BUTTE,0
-121.8699903,40.4351568,"Manton, CA",Manton,CA,96059,TEHAMA,0
-121.802173,36.6844029,"Marina, CA",Marina,CA,93933,MONTEREY,0
-119.9662843,37.4849377,"Mariposa, CA",Mariposa,CA,95338,MARIPOSA,0
-122.1341321,38.0193657,"Martinez, CA",Martinez,CA,94553,CONTRA COSTA,0
-121.5913547,39.1457253,"Marysville, CA",Marysville,CA,95901,YUBA,0
-121.3991468,41.0501634,"McArthur, CA",McArthur,CA,96056,SHASTA,0
-121.9146681,39.1433881,"Meridian, CA",Meridian,CA,95957,SUTTER,0
-120.9968782,37.6390972,"Modesto, CA",Modesto,CA,95350,STANISLAUS,0
-121.8946761,36.6002378,"Monterey, CA",Monterey,CA,93940,MONTEREY,0
-122.3105666,41.3098746,"Mount Shasta, CA",Mount Shasta,CA,96067,SISKIYOU,0
-120.4596437,38.1374202,"Murphys, CA",Murphys,CA,95247,CALAVERAS,0
-121.0160594,39.2615606,"Nevada City, CA",Nevada City,CA,95959,NEVADA,0
-120.8471545,37.7665947,"Oakdale, CA",Oakdale,CA,95361,STANISLAUS,0
-119.6493154,37.3279997,"Oakhurst, CA",Oakhurst,CA,93644,MADERA,0
-122.2711137,37.8043637,"Oakland, CA",Oakland,CA,94601,ALAMEDA,0
-121.7124536,37.9974219,"Oakley, CA",Oakley,CA,94561,CONTRA COSTA,0
-119.242889,34.4480495,"Ojai, CA",Ojai,CA,93023,VENTURA,0
-121.2257818,38.6785145,"Orangevale, CA",Orangevale,CA,95662,SACRAMENTO,0
-121.2651609,39.3443429,"Oregon House, CA",Oregon House,CA,95962,YUBA,0
-122.1963748,39.7473803,"Orland, CA",Orland,CA,95963,GLENN,0
-121.556359,39.5137752,"Oroville, CA",Oroville,CA,95965,BUTTE,0
-121.5380243,39.4354432,"Palermo, CA",Palermo,CA,95968,BUTTE,0
-116.3744556,33.7222445,"Palm Desert, CA",Palm Desert,CA,92211,RIVERSIDE,0
-121.6219177,39.7596061,"Paradise, CA",Paradise,CA,95967,BUTTE,0
-121.1910659,39.196005,"Penn Valley, CA",Penn Valley,CA,95946,NEVADA,0
-122.6366524,38.232417,"Petaluma, CA",Petaluma,CA,94952,SONOMA,0
-117.5725628,34.426288,"Phelan, CA",Phelan,CA,92329,SAN BERNARDINO,0
-123.4450093,39.0657324,"Philo, CA",Philo,CA,95466,MENDOCINO,0
-120.5718719,38.4318551,"Pioneer, CA",Pioneer,CA,95666,AMADOR,0
-120.798546,38.7296252,"Placerville, CA",Placerville,CA,95667,EL DORADO,0
-118.4265872,33.9719826,"Playa Vista, CA",Playa Vista,CA,90094,LOS ANGELES,0
-121.5580176,39.0207272,"Plumas Lake, CA",Plumas Lake,CA,95961,YUBA,1
-120.5865935,38.7612923,"Pollock Pines, CA",Pollock Pines,CA,95726,EL DORADO,0
-122.009975,39.4032192,"Princeton, CA",Princeton,CA,95970,COLUSA,0
-121.6696689,36.7757907,"Prunedale, CA",Prunedale,CA,93907,MONTEREY,1
-121.4485797,39.8029398,"Pulga, CA",Pulga,CA,95965,BUTTE,1
-120.9471764,39.9368363,"Quincy, CA",Quincy,CA,95971,PLUMAS,0
-121.302728,38.5890723,"Rancho Cordova, CA",Rancho Cordova,CA,95670,SACRAMENTO,0
-122.4580469,40.0006884,"Rancho Tehama Reserve, CA",Rancho Tehama Reserve,CA,96021,TEHAMA,1
-122.2358302,40.1784886,"Red Bluff, CA",Red Bluff,CA,96080,TEHAMA,0
-122.3916754,40.5865396,"Redding, CA",Redding,CA,96001,SHASTA,0
-122.2363548,37.4852152,"Redwood City, CA",Redwood City,CA,94061,SAN MATEO,0
-121.6913439,38.1557502,"Rio Vista, CA",Rio Vista,CA,94571,SOLANO,0
-121.744858,39.4958697,"Richvale, CA",Richvale,CA,95974,BUTTE,0
-117.3754942,33.9806005,"Riverside, CA",Riverside,CA,92501,RIVERSIDE,0
-121.2357828,38.7907339,"Rocklin, CA",Rocklin,CA,95677,PLACER,0
-122.7010984,38.3396367,"Rohnert Park, CA",Rohnert Park,CA,94926,SONOMA,0
-121.2880059,38.7521235,"Roseville, CA",Roseville,CA,95661,PLACER,0
-121.4943996,38.5815719,"Sacramento, CA",Sacramento,CA,94203,SACRAMENTO,0
-121.6555013,36.6777372,"Salinas, CA",Salinas,CA,93901,MONTEREY,0
-122.5616448,37.9746458,"San Anselmo, CA",San Anselmo,CA,94960,MARIN,0
-122.4194155,37.7749295,"San Francisco,CA",San Francisco,CA,94105,SAN FRANCISCO,1
-121.8863286,37.3382082,"San Jose, CA",San Jose,CA,95101,SANTA CLARA,0
-122.1560768,37.7249296,"San Leandro, CA",San Leandro,CA,94577,ALAMEDA,0
-120.6596156,35.2827524,"San Luis Obispo, CA",San Luis Obispo,CA,93401,SAN LUIS OBISPO,0
-117.867653,33.7454725,"Santa Ana, CA",Santa Ana,CA,92701,ORANGE,0
-122.0307963,36.9741171,"Santa Cruz, CA",Santa Cruz,CA,95060,SANTA CRUZ,0
-121.016866,37.0977209,"Santa Nella, CA",Santa Nella,CA,95322,MERCED,1
-122.7140548,38.440429,"Santa Rosa, CA",Santa Rosa,CA,95401,SONOMA,0
-124.1008808,40.4823572,"Scotia, CA",Scotia,CA,95565,HUMBOLDT,0
-122.0146841,37.0510595,"Scotts Valley, CA",Scotts Valley,CA,95066,SANTA CRUZ,0
-122.3708419,40.6804279,"Shasta Lake, CA",Shasta Lake,CA,96019,SHASTA,0
-124.0730866,40.0304212,"Shelter Cove, CA",Shelter Cove,CA,95589,HUMBOLDT,1
-120.9359987,38.6691362,"Shingle Springs, CA",Shingle Springs,CA,95682,EL DORADO,0
-118.781482,34.2694474,"Simi Valley, CA",Simi Valley,CA,93062,VENTURA,0
-120.1376481,34.5958201,"Solvang, CA",Solvang,CA,93463,SANTA BARBARA,0
-120.685388,38.64762,"Somerset, CA",Somerset,CA,95684,EL DORADO,0
-120.3821724,37.9829496,"Sonora, CA",Sonora,CA,95370,TUOLUMNE,0
-122.4077498,37.654656,"South San Francisco, CA",South San Francisco,CA,94080,SAN MATEO,0
-121.637973,39.1165329,"South Yuba City, CA",South Yuba City,CA,95991,SUTTER,0
-122.4703868,38.5052429,"St. Helena, CA",St. Helena,CA,94574,NAPA,1
-121.5280275,39.9076606,"Stirling City, CA",Stirling City,CA,95978,BUTTE,0
-121.2907796,37.9577016,"Stockton, CA",Stockton,CA,95201,SAN JOAQUIN,0
-118.3870991,34.1395597,"Studio City, CA",Studio City,CA,91604,LOS ANGELES,0
-120.6530063,40.4162842,"Susanville, CA",Susanville,CA,96127,LASSEN,0
-121.7527482,39.1598915,"Sutter, CA",Sutter,CA,95982,SUTTER,0
-120.8396752,40.0754477,"Taylorsville, CA",Taylorsville,CA,95983,PLUMAS,0
-122.1233228,40.0271015,"Tehama, CA",Tehama,CA,96090,TEHAMA,0
-121.5869154,39.5112752,"Thermalito, CA",Thermalito,CA,95965,BUTTE,1
-121.4252227,37.7396513,"Tracy, CA",Tracy,CA,95304,SAN JOAQUIN,0
-124.1431246,41.059291,"Trinidad, CA",Trinidad,CA,95570,HUMBOLDT,0
-120.1832533,39.327962,"Truckee, CA",Truckee,CA,96160,NEVADA,0
-119.3473379,36.2077288,"Tulare, CA",Tulare,CA,93274,TULARE,0
-120.8465941,37.4946568,"Turlock, CA",Turlock,CA,95380,STANISLAUS,0
-120.2295831,38.0385049,"Twain Harte, CA",Twain Harte,CA,95383,TUOLUMNE,0
-121.9877444,38.3565773,"Vacaville, CA",Vacaville,CA,95687,SOLANO,0
-123.2077831,39.1501709,"Ukiah, CA",Ukiah,CA,95482,MENDOCINO,0
-119.2920585,36.3302284,"Visalia, CA",Visalia,CA,93277,TULARE,0
-121.7568946,36.910231,"Watsonville, CA",Watsonville,CA,95076,SANTA CRUZ,0
-122.3861269,41.4226498,"Weed, CA",Weed,CA,96094,SISKIYOU,0
-121.530234,38.5804609,"West Sacramento, CA",West Sacramento,CA,95605,YOLO,0
-121.0057931,40.3059999,"Westwood, CA",Westwood,CA,96137,LASSEN,0
-117.2800372,33.5989126,"Wildomar, CA",Wildomar,CA,92595,RIVERSIDE,0
-122.1494187,39.1546137,"Williams, CA",Williams,CA,95987,COLUSA,0
-123.3555656,39.4096079,"Willits, CA",Willits,CA,95490,MENDOCINO,0
-122.1935931,39.5243265,"Willows, CA",Willows,CA,95988,GLENN,0
-121.7732971,38.6785157,"Woodland, CA",Woodland,CA,95695,YOLO,0
-121.525925,39.705576,"Yankee Hill, CA",Yankee Hill,CA,95965,BUTTE,1
-122.6344709,41.7354186,"Yreka, CA",Yreka,CA,96097,SISKIYOU,0
-121.6169108,39.1404477,"Yuba City, CA",Yuba City,CA,95991,SUTTER,0
-104.8213634,38.8338816,"Colorado Springs, CO",Colorado Springs,CO,80901,EL PASO,0
-104.6921874,40.3763701,"Evans, CO",Evans,CO,80620,WELD,0
-104.872758,39.0916586,"Monument, CO",Monument,CO,80132,EL PASO,0
-104.6091409,38.2544472,"Pueblo, CO",Pueblo,CO,81001,PUEBLO,0
-104.9013617,40.4774818,"Windsor, CO",Windsor,CO,80550,WELD,0
-73.4081575,41.117744,"Norwalk, CT",Norwalk,CT,6850,FAIRFIELD,0
-81.9495331,26.5628537,"Cape Coral, FL",Cape Coral,FL,33904,LEE,0
-81.9498042,28.0394654,"Lakeland, FL",Lakeland,FL,33801,POLK,0
-81.7948103,26.1420358,"Naples, FL",Naples,FL,34101,COLLIER,0
-81.3124341,29.9012437,"Saint Augustine, FL",St. Augustine,FL,32080,SAINT JOHNS,1
-81.5471201,30.0820653,"Saint Johns, FL",St. Johns,FL,32259,SAINT JOHNS,1
-82.6402915,27.7676008,"Saint Petersburg, FL",St. Petersburg,FL,33701,PINELLAS,1
-82.0105148,33.4734978,"Augusta, GA",Augusta,GA,30901,RICHMOND,0
-84.8413056,33.9244531,"Dallas, GA",Dallas,GA,30132,PAULDING,0
-84.9191081,33.732052,"Villa Rica, GA",Villa Rica,GA,30180,CARROLL,0
-158.0000565,21.4389123,"Oahu, HI",Oahu,HI,96801,HONOLULU,1
-157.835698,21.285002,"Waikiki, HI",Waikiki,HI,96815,HONOLULU,1
-111.9666355,43.4696366,"Ammon, ID",Ammon,ID,83406,BONNEVILLE,1
-116.2023137,43.6150186,"Boise, ID",Boise,ID,83701,ADA,0
-116.6873596,43.6629384,"Caldwell, ID",Caldwell,ID,83605,CANYON,0
-116.3540138,43.6954424,"Eagle, ID",Eagle,ID,83616,ADA,0
-116.4993012,43.8734978,"Emmett, ID",Emmett,ID,83617,GEM,0
-116.9165461,44.0076639,"Fruitland, ID",Fruitland,ID,83619,PAYETTE,0
-112.0407584,43.4926607,"Idaho Falls, ID",Idaho Falls,ID,83401,BONNEVILLE,0
-117.001189,46.4004089,"Lewiston, ID",Lewiston,ID,83501,NEZ PERCE,0
-116.3915131,43.6121087,"Meridian, ID",Meridian,ID,83642,ADA,0
-116.55978,43.5788175,"Nampa, ID",Nampa,ID,83651,CANYON,0
-116.9515856,47.7179578,"Post Falls, ID",Post Falls,ID,83854,KOOTENAI,0
-111.6046687,42.6543652,"Soda Springs, ID",Soda Springs,ID,83276,CARIBOU,0
-114.4700518,42.5558381,"Twin Falls, ID",Twin Falls,ID,83301,TWIN FALLS,0
-87.6297982,41.8781136,"Chicago, IL",Chicago,IL,60655,COOK,1
-90.1487199,38.7014389,"Granite City, IL",Granite City,IL,62040,MADISON,0
-86.158068,39.768403,"Indianapolis, IN",Indianapolis,IN,46201,MARION,0
-93.097702,41.8780025,"Iowa, IA",Iowa,IA,50047,WARREN,1
-95.4572034,37.6792135,"Chanute, KS",Chanute,KS,66720,NEOSHO,0
-94.6267873,39.1155314,"Kansas City, KS",Kansas City,KS,66101,WYANDOTTE,0
-94.7335709,38.9536174,"Lenexa, KS",Lenexa,KS,66215,JOHNSON,0
-98.0836679,38.1472334,"Nickerson, KS",Nickerson,KS,67561,RENO,0
-84.6052206,38.7828437,"Crittenden, KY",Crittenden,KY,41030,GRANT,0
-91.1313095,30.7905788,"Ethel, LA",Ethel,LA,70730,EAST FELICIANA,0
-92.0198427,30.2240897,"Lafayette, LA",Lafayette,LA,70501,LAFAYETTE,0
-70.7525299,41.697719,"Marion, MA",Marion,MA,2738,PLYMOUTH,0
-68.7712257,44.8016128,"Bangor, ME",Bangor,ME,4401,PENOBSCOT,0
-85.4836557,43.6980782,"Big Rapids, MI",Big Rapids,MI,49307,MECOSTA,0
-88.4262689,47.2718408,"Calumet Township, MI",Calumet Township,MI,49913,HOUGHTON,1
-83.7730237,42.9958862,"Flint Township, MI",Flint Township,MI,48507,GENESEE,1
-87.4393166,46.5436199,"Marquette, MI",Marquette,MI,49855,MARQUETTE,0
-95.7911916,44.448423,"Marshall, MN",Marshall,MN,56258,LYON,0
-93.2830021,44.8832982,"Richfield, MN",Richfield,MN,55423,HENNEPIN,1
-93.5524358,39.7952946,"Chillicothe, MO",Chillicothe,MO,64601,LIVINGSTON,0
-92.8410274,38.4314141,"Versailles, MO",Versailles,MO,65084,MORGAN,0
-92.2007227,37.8286516,"Waynesville, MO",Waynesville,MO,65583,PULASKI,0
-89.3985283,32.3546679,"Unknown City, MS",Unknown City,MS,39056,HINDS,1
-111.0429339,45.6769979,"Bozeman, MT",Bozeman,MT,59715,GALLATIN,0
-112.3261618,48.6330395,"Cut Bank, MT",Cut Bank,MT,59427,GLACIER,0
-113.4845229,47.1793799,"Seeley Lake, MT",Seeley Lake,MT,59868,MISSOULA,0
-114.3352652,48.4106373,"Whitefish, MT",Whitefish,MT,59937,FLATHEAD,0
-82.5012316,35.4306712,"Fletcher, NC",Fletcher,NC,28732,HENDERSON,0
-78.9453056,34.9704419,"Hope Mills, NC",Hope Mills,NC,28348,CUMBERLAND,0
-77.5816353,35.2626635,"Kinston, NC",Kinston,NC,28501,LENOIR,0
-84.0346315,35.0875836,"Murphy, NC",Murphy,NC,28906,CHEROKEE,0
-95.9345034,41.2565369,"Omaha, NE",Omaha,NE,68101,DOUGLAS,0
-105.960265,32.8995325,"Alamogordo, NM",Alamogordo,NM,88310,OTERO,0
-103.2052272,34.4047987,"Clovis, NM",Clovis,NM,88101,CURRY,0
-105.937799,35.6869752,"Santa Fe, NM",Santa Fe,NM,87501,SANTA FE,0
-96.499233,45.8044052,"Wheaton, NM",Wheaton,NM,87734,MORA,1
-117.0672356,39.4925701,"Austin, NV",Austin,NV,89310,LANDER,0
-119.7674034,39.1637984,"Carson City, NV",Carson City,NV,89701,CARSON CITY,0
-118.7770407,39.4748693,"Fallon, NV",Fallon,NV,89406,CHURCHILL,0
-119.7496216,38.9412959,"Gardnerville, NV",Gardnerville,NV,89410,DOUGLAS,0
-114.9817213,36.0395247,"Henderson, NV",Henderson,NV,89011,CLARK,1
-115.1398296,36.1699412,"Las Vegas, NV",Las Vegas,NV,89101,CLARK,0
-119.8138027,39.5296329,"Reno, NV",Reno,NV,89501,WASHOE,0
-119.8771391,39.6579647,"Reno-Stead, NV",Reno-Stead,NV,89506,WASHOE,1
-119.7526886,39.5349112,"Sparks, NV",Sparks,NV,89431,WASHOE,0
-119.7760234,39.5962993,"Sun Valley, NV",Sun Valley,NV,89433,WASHOE,0
-118.1206953,40.4454634,"Unionville, NV",Unionville,NV,89418,PERSHING,1
-119.1629309,38.9857508,"Yerington, NV",Yerington,NV,89447,LYON,0
-81.5190053,41.0814447,"Akron, OH",Akron,OH,44301,SUMMIT,0
-81.6943605,41.49932,"Cleveland, OH",Cleveland,OH,44101,CUYAHOGA,0
-82.9987942,39.9611755,"Columbus, OH",Columbus,OH,43085,FRANKLIN,0
-81.6379033,41.3686645,"Independence, OH",Independence,OH,44131,CUYAHOGA,0
-97.8783911,36.3955891,"Enid, OK",Enid,OK,73701,GARFIELD,0
-97.3967019,35.4495065,"Midwest City, OK",Midwest City,OK,73199,OKLAHOMA,1
-97.5164276,35.4675602,"Oklahoma City, OK",Oklahoma City,OK,73101,OKLAHOMA,0
-97.7464345,35.6419951,"Piedmont, OK",Piedmont,OK,73078,CANADIAN,0
-98.3078258,34.3598075,"Walters, OK",Walters,OK,73572,COTTON,0
-123.1059282,44.6365107,"Albany, OR",Albany,OR,97321,LINN,0
-122.7094767,42.1945758,"Ashland, OR",Ashland,OR,97520,JACKSON,0
-124.408448,43.1189978,"Bandon, OR",Bandon,OR,97411,COOS,0
-121.3153096,44.0581728,"Bend, OR",Bend,OR,97701,DESCHUTES,0
-124.2839819,42.0526114,"Brookings, OR",Brookings,OR,97415,CURRY,0
-123.6739646,43.0333629,"Camas Valley, OR",Camas Valley,OR,97416,DOUGLAS,0
-122.9164307,42.3759586,"Central Point, OR",Central Point,OR,97502,JACKSON,0
-124.2178903,43.3665007,"Coos Bay, OR",Coos Bay,OR,97420,COOS,0
-124.1876075,43.1770544,"Coquille, OR",Coquille,OR,97423,COOS,0
-122.8228506,43.915959,"Dexter, OR",Dexter,OR,97431,LANE,0
-122.8028177,42.4726258,"Eagle Point, OR",Eagle Point,OR,97524,JACKSON,0
-123.0867536,44.0520691,"Eugene, OR",Eugene,OR,97401,LANE,0
-123.3283925,42.4390069,"Grants Pass, OR",Grants Pass,OR,97526,JOSEPHINE,0
-123.4025633,42.5845614,"Hugo, OR",Hugo,OR,97526,JOSEPHINE,1
-121.7816704,42.224867,"Klamath Falls, OR",Klamath Falls,OR,97601,KLAMATH,0
-121.503636,43.6703995,"La Pine, OR",La Pine,OR,97739,DESCHUTES,0
-123.1121766,45.2434865,"Lafayette, OR",Lafayette,OR,97127,YAMHILL,0
-120.345792,42.1887721,"Lakeview, OR",Lakeview,OR,97630,LAKE,0
-122.9070339,44.5365119,"Lebanon, OR",Lebanon,OR,97355,LINN,0
-123.1987163,45.2101162,"McMinnville, OR",McMinnville,OR,97128,YAMHILL,0
-122.8755949,42.3265152,"Medford, OR",Medford,OR,97501,JACKSON,0
-116.9948804,43.8768289,"Nyssa, OR",Nyssa,OR,97913,MALHEUR,0
-116.9629378,44.0265525,"Ontario, OR",Ontario,OR,97914,MALHEUR,0
-122.6587185,45.5122308,"Portland, OR",Portland,OR,97201,MULTNOMAH,0
-121.1739212,44.2726203,"Redmond, OR",Redmond,OR,97756,DESCHUTES,0
-123.1719976,42.435954,"Rogue River, OR",Rogue River,OR,97537,JACKSON,0
-123.3417381,43.216505,"Roseburg, OR",Roseburg,OR,97470,DOUGLAS,0
-123.0350963,44.9428975,"Salem, OR",Salem,OR,97301,MARION,0
-123.9226385,45.9931636,"Seaside, OR",Seaside,OR,97138,CLATSOP,0
-123.0220289,44.0462362,"Springfield, OR",Springfield,OR,97477,LANE,0
-75.2207323,40.688432,"Easton, PA",Easton,PA,18040,NORTHAMPTON,0
-71.4161671,41.7001009,"Warwick, RI",Warwick,RI,2886,KENT,0
-103.2310149,44.0805434,"Rapid City, SD",Rapid City,SD,57701,PENNINGTON,0
-96.728333,43.5473028,"Sioux Falls, SD",Sioux Falls,SD,57101,MINNEHAHA,0
-81.2264646,35.1112478,"Clover, SC",Clover,SC,29710,YORK,0
-81.2362107,33.9815369,"Lexington, SC",Lexington,SC,29071,LEXINGTON,0
-82.3534727,36.3134397,"Johnson City, TN",Johnson City,TN,37601,WASHINGTON,0
-86.7816016,36.1626638,"Nashville, TN",Nashville,TN,37201,DAVIDSON,0
-96.6705503,33.1031744,"Allen, TX",Allen,TX,75002,COLLIN,0
-95.0854885,30.34132,"Cleveland, TX",Cleveland,TX,77327,LIBERTY,0
-96.7969879,32.7766642,"Dallas, TX",Dallas,TX,75201,DALLAS,0
-106.4901505,31.7567482,"El Paso, TX",El Paso,TX,79901,EL PASO,0
-94.7993802,32.1532156,"Henderson, TX",Henderson,TX,75652,RUSK,0
-97.7277959,31.1171194,"Killeen, TX",Killeen,TX,76540,BELL,0
-96.6397822,33.1972465,"McKinney, TX",McKinney,TX,75069,COLLIN,0
-98.4936282,29.4241219,"San Antonio, TX",San Antonio,TX,78201,BEXAR,0
-95.4171601,30.0799405,"Spring, TX",Spring,TX,77373,HARRIS,0
-95.6349463,29.6196787,"Sugar Land, TX",Sugar Land,TX,77478,FORT BEND,0
-96.2752569,32.7359626,"Terrell, TX",Terrell,TX,75160,KAUFMAN,0
-95.3010624,32.3512601,"Tyler, TX",Tyler,TX,75701,SMITH,0
-102.498757,31.8423472,"West Odessa, TX",West Odessa,TX,79763,ECTOR,1
-112.0260538,41.1107771,"Clearfield, UT",Clearfield,UT,84015,DAVIS,0
-111.9710529,41.0602216,"Layton, UT",Layton,UT,84040,DAVIS,0
-111.8999353,40.6110589,"Midvale, UT",Midvale,UT,84047,SALT LAKE,0
-109.5498395,38.5733155,"Moab, UT",Moab,UT,84532,GRAND,0
-111.9738304,41.223,"Ogden, UT",Ogden,UT,84201,WEBER,0
-111.8910474,40.7607793,"Salt Lake City, UT",Salt Lake City,UT,84101,SALT LAKE,0
-111.9391031,40.6096698,"West Jordan, UT",West Jordan,UT,84047,SALT LAKE,1
-76.4730122,37.0870821,"Newport News, VA",Newport News,VA,23601,NEWPORT NEWS CITY,0
-77.4360481,37.5407246,"Richmond, VA",Richmond,VA,23218,RICHMOND CITY,0
-77.4083086,38.4220687,"Stafford, VA",Stafford,VA,22554,STAFFORD,0
-119.5536491,47.3176385,"Ephrata, WA",Ephrata,WA,98823,GRANT,0
-122.2020795,47.9789848,"Everett, WA",Everett,WA,98201,SNOHOMISH,0
-119.119948,46.2086683,"Kennewick, WA",Kennewick,WA,99336,BENTON,0
-122.9381672,46.1381676,"Longview, WA",Longview,WA,98632,COWLITZ,0
-122.3320708,47.6062095,"Seattle, WA",Seattle,WA,98101,KING,0
-117.4260465,47.6587802,"Spokane, WA",Spokane,WA,99201,SPOKANE,0
-89.683459,45.1805223,"Merrill, WI",Merrill,WI,54452,LINCOLN,0
-109.0565308,44.5263422,"Cody, WY",Cody,WY,82414,PARK,0
-109.6304335,43.533565,"Dubois, WY",Dubois,WY,82513,FREMONT,0
-110.7624282,43.4799291,"Jackson, WY",Jackson,WY,83001,TETON,0
-108.7573525,44.7538408,"Powell, WY",Powell,WY,82435,PARK,0
-108.2120432,43.6460672,"Thermopolis, WY",Thermopolis,WY,82443,HOT SPRINGS,0